STARLINK-32078          
1 60338U 24136K   26068.42737167  .00003380  00000+0  12624-3 0  9996
2 60338  53.1610  76.9367 0001397  99.4647 260.6512 15.30183824 89627
LIZZIESAT-2 (LS-2)      
1 62383U 24247G   26068.49140277  .00009388  00000+0  34517-3 0  9997
2 62383  44.9909 117.0823 0004092 327.5136  32.5495 15.28222796 67716
